OBJECT_NAME,OBJECT_ID,EPOCH,MEAN_MOTION,ECCENTRICITY,INCLINATION,RA_OF_ASC_NODE,ARG_OF_PERICENTER,MEAN_ANOMALY,EPHEMERIS_TYPE,CLASSIFICATION_TYPE,NORAD_CAT_ID,ELEMENT_SET_NO,REV_AT_EPOCH,BSTAR,MEAN_MOTION_DOT,MEAN_MOTION_DDOT
ASTRA 2E,2013-056A,2026-07-12T03:22:40.902816,1.00273537,.0002778,0.0812,309.5141,177.6693,242.0244,0,U,39285,999,4666,0,.153E-5,0
FM-6,2013-058A,2026-07-12T04:24:14.838048,1.00271113,.0001317,0.0192,49.6836,130.2494,59.8505,0,U,39360,999,4632,0,-.13E-6,0
RADUGA-1M 3,2013-062A,2026-07-11T22:18:38.806848,1.00270625,.000201,6.0186,72.0353,272.8257,314.6079,0,U,39375,999,4635,0,.151E-5,0
SES-8,2013-071A,2026-07-12T02:57:21.692736,1.00270715,.0002586,0.0485,262.4556,208.9718,317.9327,0,U,39460,999,4467,0,-.266E-5,0
INMARSAT 5-F1,2013-073A,2026-07-12T04:22:21.654048,1.00268802,.0000633,0.0180,34.2986,277.1534,106.8478,0,U,39476,999,4582,0,.31E-6,0
TKSAT-1 (TUPAC KATARI),2013-075A,2026-07-12T02:49:54.794784,1.00271013,.0002346,0.0552,232.9835,234.5041,137.8113,0,U,39481,999,4585,0,-.192E-5,0
EXPRESS-AM5,2013-077A,2026-07-12T00:29:23.807616,1.00271558,.0000225,0.0272,284.5090,334.3614,178.4255,0,U,39487,999,4660,0,-.277E-5,0
GSAT-14,2014-001A,2026-07-12T03:32:21.444288,1.00270016,.000192,0.0255,57.0091,157.5210,202.5788,0,U,39498,999,4562,0,0,0
THAICOM 6,2014-002A,2026-07-12T03:29:38.637312,1.00272947,.0004218,0.0435,117.9094,6.4797,296.5376,0,U,39500,999,4570,0,-.118E-5,0
TDRS 12,2014-004A,2026-07-12T02:52:54.141312,1.00273438,.0004306,4.0016,19.4821,204.2940,68.5875,0,U,39504,999,4452,0,-.269E-5,0
ABS-2,2014-006A,2026-07-12T04:32:21.943104,1.00271032,.0003262,0.0197,303.2843,154.5594,335.2423,0,U,39508,999,4552,0,-.83E-6,0
ATHENA-FIDUS,2014-006B,2026-07-12T03:25:33.129120,1.00269933,.0001257,0.0166,100.3041,15.5405,263.3763,0,U,39509,999,4533,0,.157E-5,0
TURKSAT 4A,2014-007A,2026-07-12T03:26:40.521120,1.00272429,.0001215,0.0653,285.8945,325.4677,132.3340,0,U,39522,999,4521,0,.149E-5,0
EXPRESS-AT1,2014-010A,2026-07-12T05:16:01.529760,1.00308606,.000442,0.3184,85.4604,54.8340,294.3119,0,U,39612,999,4506,0,-.3E-7,0
EXPRESS-AT2,2014-010B,2026-07-12T03:30:40.136832,1.00272206,.0000694,0.0172,349.7579,313.2754,95.6696,0,U,39613,999,4474,0,.81E-6,0
AMAZONAS 4A,2014-011A,2026-07-12T02:53:39.437376,1.00270446,.0004633,0.0603,201.8676,295.3529,122.2231,0,U,39616,999,4496,0,-.249E-5,0
ASTRA 5B,2014-011B,2026-07-12T03:21:26.023392,1.00272699,.0001984,0.0836,298.7003,190.6059,234.5920,0,U,39617,999,4491,0,.14E-5,0
IRNSS-1B,2014-017A,2026-07-10T17:17:10.737024,1.00274378,.00223275,28.8825,239.9967,191.5584,171.4704,0,U,39635,999,4503,0,.149E-5,0
LUCH-5V,2014-023A,2026-07-12T02:57:21.693600,1.00274929,.0002056,5.1905,69.4794,78.9133,280.6585,0,U,39727,999,4460,0,-.271E-5,0
KAZSAT-3,2014-023B,2026-07-12T03:31:25.064832,1.00270745,.0000306,0.0110,8.1402,266.1809,127.0730,0,U,39728,999,4270,0,.63E-6,0
EUTELSAT 3B,2014-030A,2026-07-12T03:15:34.085088,1.00270069,.0004077,0.0612,353.5154,120.5643,227.9366,0,U,39773,999,4431,0,.22E-6,0
ASIASAT 8 (AMOS-7),2014-046A,2026-07-12T00:19:24.765312,1.00267127,.0001307,0.0270,37.4219,90.8652,271.7839,0,U,40107,999,10239,0,0,0
ASIASAT 6,2014-052A,2026-07-12T02:05:55.043232,1.00270125,.0000712,0.0284,50.4108,111.2878,279.6867,0,U,40141,999,4332,0,0,0
OPTUS 10,2014-054A,2026-07-10T11:11:11.287104,1.00271044,.00019462,0.0483,69.5916,41.3086,141.2837,0,U,40146,999,4326,0,-.137E-5,0
MEASAT-3B,2014-054B,2026-07-12T03:29:38.637312,1.00270393,.0003451,0.0383,44.7500,22.1998,6.9933,0,U,40147,999,4315,0,-.239E-5,0
HIMAWARI-8,2014-060A,2026-07-12T04:50:38.703840,1.00272437,.0001048,0.0214,309.8109,219.7177,333.8935,0,U,40267,999,4301,0,-.273E-5,0
IRNSS-1C,2014-061A,2026-07-11T21:22:29.055648,1.00272869,.00221348,6.5787,88.4618,5.0900,239.8922,0,U,40269,999,4293,0,-.165E-5,0
INTELSAT 30 (IS-30),2014-062A,2026-07-12T00:11:07.522944,1.00271461,.0001386,0.0184,49.2622,332.1811,176.1990,0,U,40271,999,704,0,-.147E-5,0
ARSAT 1,2014-062B,2026-07-12T02:54:01.901376,1.00270860,.0001715,0.0451,285.2936,184.7732,151.6586,0,U,40272,999,4287,0,-.257E-5,0
EUTELSAT 53A,2014-064A,2026-07-11T05:15:17.655840,1.00269242,.00017013,0.0142,315.3160,242.3457,223.2816,0,U,40277,999,4180,0,.105E-5,0
GSAT-16,2014-078A,2026-07-12T03:30:25.161120,1.00272387,.0007229,0.0143,320.4558,131.6713,305.5978,0,U,40332,999,4235,0,.87E-6,0
DIRECTV 14,2014-078B,2026-07-12T02:46:25.131360,1.00269944,.000027,0.0121,42.0289,266.6736,283.6692,0,U,40333,999,4229,0,-.122E-5,0
