ASTRA 2E                
1 39285U 13056A   26193.14075119  .00000153  00000+0  00000+0 0  9998
2 39285   0.0812 309.5141 0002778 177.6693 242.0244  1.00273537 46664
FM-6                    
1 39360U 13058A   26193.18350507 -.00000013  00000+0  00000+0 0  9991
2 39360   0.0192  49.6836 0001317 130.2494  59.8505  1.00271113 46329
RADUGA-1M 3             
1 39375U 13062A   26192.92961582  .00000151  00000+0  00000+0 0  9996
2 39375   6.0186  72.0353 0002010 272.8257 314.6079  1.00270625 46357
SES-8                   
1 39460U 13071A   26193.12316774 -.00000266  00000+0  00000+0 0  9999
2 39460   0.0485 262.4556 0002586 208.9718 317.9327  1.00270715 44673
INMARSAT 5-F1           
1 39476U 13073A   26193.18219507  .00000031  00000+0  00000+0 0  9999
2 39476   0.0180  34.2986 0000633 277.1534 106.8478  1.00268802 45823
TKSAT-1 (TUPAC KATARI)  
1 39481U 13075A   26193.11799531 -.00000192  00000+0  00000+0 0  9999
2 39481   0.0552 232.9835 0002346 234.5041 137.8113  1.00271013 45856
EXPRESS-AM5             
1 39487U 13077A   26193.02041444 -.00000277  00000+0  00000+0 0  9994
2 39487   0.0272 284.5090 0000225 334.3614 178.4255  1.00271558 46602
GSAT-14                 
1 39498U 14001A   26193.14747042  .00000000  00000+0  00000+0 0  9997
2 39498   0.0255  57.0091 0001920 157.5210 202.5788  1.00270016 45628
THAICOM 6               
1 39500U 14002A   26193.14558608 -.00000118  00000+0  00000+0 0  9991
2 39500   0.0435 117.9094 0004218   6.4797 296.5376  1.00272947 45706
TDRS 12                 
1 39504U 14004A   26193.12007108 -.00000269  00000+0  00000+0 0  9996
2 39504   4.0016  19.4821 0004306 204.2940  68.5875  1.00273438 44525
ABS-2                   
1 39508U 14006A   26193.18914286 -.00000083  00000+0  00000+0 0  9996
2 39508   0.0197 303.2843 0003262 154.5594 335.2423  1.00271032 45527
ATHENA-FIDUS            
1 39509U 14006B   26193.14274455  .00000157  00000+0  00000+0 0  9991
2 39509   0.0166 100.3041 0001257  15.5405 263.3763  1.00269933 45333
TURKSAT 4A              
1 39522U 14007A   26193.14352455  .00000149  00000+0  00000+0 0  9995
2 39522   0.0653 285.8945 0001215 325.4677 132.3340  1.00272429 45216
EXPRESS-AT1             
1 39612U 14010A   26193.21946215 -.00000003  00000+0  00000+0 0  9990
2 39612   0.3184  85.4604 0004420  54.8340 294.3119  1.00308606 45068
EXPRESS-AT2             
1 39613U 14010B   26193.14629788  .00000081  00000+0  00000+0 0  9991
2 39613   0.0172 349.7579 0000694 313.2754  95.6696  1.00272206 44742
AMAZONAS 4A             
1 39616U 14011A   26193.12059534 -.00000249  00000+0  00000+0 0  9996
2 39616   0.0603 201.8676 0004633 295.3529 122.2231  1.00270446 44967
ASTRA 5B                
1 39617U 14011B   26193.13988453  .00000140  00000+0  00000+0 0  9998
2 39617   0.0836 298.7003 0001984 190.6059 234.5920  1.00272699 44915
IRNSS-1B                
1 39635U 14017A   26191.72026316  .00000149  00000+0  00000+0 0  9997
2 39635  28.8825 239.9967 0022327 191.5584 171.4704  1.00274378 45033
LUCH-5V                 
1 39727U 14023A   26193.12316775 -.00000271  00000+0  00000+0 0  9990
2 39727   5.1905  69.4794 0002056  78.9133 280.6585  1.00274929 44605
KAZSAT-3                
1 39728U 14023B   26193.14681788  .00000063  00000+0  00000+0 0  9990
2 39728   0.0110   8.1402 0000306 266.1809 127.0730  1.00270745 42708
EUTELSAT 3B             
1 39773U 14030A   26193.13581117  .00000022  00000+0  00000+0 0  9997
2 39773   0.0612 353.5154 0004077 120.5643 227.9366  1.00270069 44317
ASIASAT 8 (AMOS-7)      
1 40107U 14046A   26193.01348108  .00000000  00000+0  00000+0 0  9991
2 40107   0.0270  37.4219 0001307  90.8652 271.7839  1.00267127102398
ASIASAT 6               
1 40141U 14052A   26193.08744263  .00000000  00000+0  00000+0 0  9995
2 40141   0.0284  50.4108 0000712 111.2878 279.6867  1.00270125 43327
OPTUS 10                
1 40146U 14054A   26191.46610286 -.00000137  00000+0  00000+0 0  9991
2 40146   0.0483  69.5916 0001946  41.3086 141.2837  1.00271044 43260
MEASAT-3B               
1 40147U 14054B   26193.14558608 -.00000239  00000+0  00000+0 0  9991
2 40147   0.0383  44.7500 0003451  22.1998   6.9933  1.00270393 43154
HIMAWARI-8              
1 40267U 14060A   26193.20183685 -.00000273  00000+0  00000+0 0  9995
2 40267   0.0214 309.8109 0001048 219.7177 333.8935  1.00272437 43013
IRNSS-1C                
1 40269U 14061A   26192.89061407 -.00000165  00000+0  00000+0 0  9999
2 40269   6.5787  88.4618 0022134   5.0900 239.8922  1.00272869 42935
INTELSAT 30 (IS-30)     
1 40271U 14062A   26193.00772596 -.00000147  00000+0  00000+0 0  9995
2 40271   0.0184  49.2622 0001386 332.1811 176.1990  1.00271461  7047
ARSAT 1                 
1 40272U 14062B   26193.12085534 -.00000257  00000+0  00000+0 0  9990
2 40272   0.0451 285.2936 0001715 184.7732 151.6586  1.00270860 42875
EUTELSAT 53A            
1 40277U 14064A   26192.21895435  .00000105  00000+0  00000+0 0  9996
2 40277   0.0142 315.3160 0001701 242.3457 223.2816  1.00269242 41807
GSAT-16                 
1 40332U 14078A   26193.14612455  .00000087  00000+0  00000+0 0  9994
2 40332   0.0143 320.4558 0007229 131.6713 305.5978  1.00272387 42352
DIRECTV 14              
1 40333U 14078B   26193.11556865 -.00000122  00000+0  00000+0 0  9995
2 40333   0.0121  42.0289 0000270 266.6736 283.6692  1.00269944 42297
